0 COSMOS 533
1 06268U 72087F   13281.91016944  .00000012  00000-0  14877-3 0  8111
2 06268 074.0339 084.2686 0098102 273.7755 197.8467 12.67528891894316
0 COSMOS 533
1 06268U 72087F   13283.96031760  .00000004  00000-0  11109-3 0  8128
2 06268 074.0341 081.4541 0098140 270.6136 192.8636 12.67529277894579
0 COSMOS 533
1 06268U 72087F   13286.15641709 -.00000031  00000-0 -68784-4 0  8137
2 06268 074.0347 078.4393 0098125 267.2372 133.8607 12.67529514894851
0 COSMOS 533
1 06268U 72087F   13288.45884247 -.00000029  00000-0 -59828-4 0  8145
2 06268 074.0353 075.2788 0098115 263.6883 200.0437 12.67529531895147
0 COSMOS 533
1 06268U 72087F   13290.67446169 -.00000002  00000-0  78255-4 0  8155
2 06268 074.0359 072.2375 0098114 260.2625 230.1347 12.67529258895429
0 COSMOS 533
1 06268U 72087F   13292.81372912  .00000018  00000-0  17776-3 0  8164
2 06268 074.0361 069.3012 0098124 256.9647 271.8124 12.67529131895698
0 COSMOS 533
1 06268U 72087F   13294.86578178  .00000015  00000-0  16557-3 0  8177
2 06268 074.0363 066.4846 0098115 253.7951 275.5258 12.67529292895952
